ALOS-2                  
1 39766U 14029A   26079.53974598  .00000700  00000+0  10078-3 0  9996
2 39766  97.9196 177.9796 0001770 109.2997 250.8406 14.79410897638475
YAOGAN-29               
1 41038U 15069A   26079.52250285  .00000612  00000+0  81938-4 0  9991
2 41038  98.0125 107.9802 0001208  20.5776 339.5485 14.83008308557489
ASTRO-H (HITOMI)        
1 41337U 16012A   26079.27639137  .00002453  00000+0  14125-3 0  9999
2 41337  30.9992 288.2263 0009610  77.6091 282.5623 15.10069100553834
HXMT (HUIYAN)           
1 42758U 17034A   26079.37456801  .00004210  00000+0  21458-3 0  9998
2 42758  43.0149 317.2648 0032935 300.9726  58.7888 15.17597604484161
SAOCOM 1A               
1 43641U 18076A   26079.49469580  .00000480  00000+0  66910-4 0  9996
2 43641  97.8892 267.5147 0001500  87.7976 272.3409 14.82152570402968
H-2A R/B                
1 43682U 18084L   26079.18319397  .00012444  00000+0  29373-3 0  9990
2 43682  98.8714 298.8177 0024556 349.1904  10.8807 15.41759166407398
SAOCOM 1B               
1 46265U 20059A   26079.52591038 -.00000105  00000+0 -65929-5 0  9999
2 46265  97.8890 266.6432 0001434  89.9591 270.1786 14.82145014300350
CSS (TIANHE)            
1 48274U 21035A   26079.40020399  .00017740  00000+0  20839-3 0  9990
2 48274  41.4699 142.9629 0005872 346.1089  13.9588 15.61026164279280
COSMOS 2550             
1 48865U 21056A   26079.53740851 -.00000190  00000+0  42624-7 0  9997
2 48865  67.1449   8.0687 0008198 268.9621  91.0595 15.33831834265127
CZ-2C R/B               
1 52794U 22058K   26079.50348978  .00034137  00000+0  48558-3 0  9992
2 52794  50.1873 262.6289 0041869 246.9596 112.6957 15.54961711211811
CZ-2C R/B               
1 54039U 22132E   26079.45214777  .00030361  00000+0  33517-3 0  9996
2 54039  97.2959  83.1035 0019426  57.1661 303.1464 15.62785581192058
GSLV R/B                
1 54149U 22138AN  26079.48429572  .00002185  00000+0  18718-3 0  9997
2 54149  87.3870 162.7491 0023942 110.7422 249.6378 14.96840331185546
