CCSDS_OMM_VERS = 2.0
CREATION_DATE  = 
ORIGINATOR     = 

OBJECT_NAME    = ALOS-2
OBJECT_ID      = 2014-029A
CENTER_NAME    = EARTH
REF_FRAME      = TEME
TIME_SYSTEM    = UTC
MEAN_ELEMENT_THEORY = SGP/SGP4

EPOCH          = 2026-03-20T12:57:14.052672
MEAN_MOTION    = 14.79410897
ECCENTRICITY   = .000177
INCLINATION    = 97.9196
RA_OF_ASC_NODE = 177.9796
ARG_OF_PERICENTER = 109.2997
MEAN_ANOMALY   = 250.8406

EPHEMERIS_TYPE = 0
CLASSIFICATION_TYPE = U
NORAD_CAT_ID   = 39766
ELEMENT_SET_NO = 999
REV_AT_EPOCH   = 63847
BSTAR          = .10078E-3
MEAN_MOTION_DOT = .7E-5
MEAN_MOTION_DDOT = 0

CCSDS_OMM_VERS = 2.0
CREATION_DATE  = 
ORIGINATOR     = 

OBJECT_NAME    = YAOGAN-29
OBJECT_ID      = 2015-069A
CENTER_NAME    = EARTH
REF_FRAME      = TEME
TIME_SYSTEM    = UTC
MEAN_ELEMENT_THEORY = SGP/SGP4

EPOCH          = 2026-03-20T12:32:24.246240
MEAN_MOTION    = 14.83008308
ECCENTRICITY   = .0001208
INCLINATION    = 98.0125
RA_OF_ASC_NODE = 107.9802
ARG_OF_PERICENTER = 20.5776
MEAN_ANOMALY   = 339.5485

EPHEMERIS_TYPE = 0
CLASSIFICATION_TYPE = U
NORAD_CAT_ID   = 41038
ELEMENT_SET_NO = 999
REV_AT_EPOCH   = 55748
BSTAR          = .81938E-4
MEAN_MOTION_DOT = .612E-5
MEAN_MOTION_DDOT = 0

CCSDS_OMM_VERS = 2.0
CREATION_DATE  = 
ORIGINATOR     = 

OBJECT_NAME    = ASTRO-H (HITOMI)
OBJECT_ID      = 2016-012A
CENTER_NAME    = EARTH
REF_FRAME      = TEME
TIME_SYSTEM    = UTC
MEAN_ELEMENT_THEORY = SGP/SGP4

EPOCH          = 2026-03-20T06:38:00.214368
MEAN_MOTION    = 15.10069100
ECCENTRICITY   = .000961
INCLINATION    = 30.9992
RA_OF_ASC_NODE = 288.2263
ARG_OF_PERICENTER = 77.6091
MEAN_ANOMALY   = 282.5623

EPHEMERIS_TYPE = 0
CLASSIFICATION_TYPE = U
NORAD_CAT_ID   = 41337
ELEMENT_SET_NO = 999
REV_AT_EPOCH   = 55383
BSTAR          = .14125E-3
MEAN_MOTION_DOT = .2453E-4
MEAN_MOTION_DDOT = 0

CCSDS_OMM_VERS = 2.0
CREATION_DATE  = 
ORIGINATOR     = 

OBJECT_NAME    = HXMT (HUIYAN)
OBJECT_ID      = 2017-034A
CENTER_NAME    = EARTH
REF_FRAME      = TEME
TIME_SYSTEM    = UTC
MEAN_ELEMENT_THEORY = SGP/SGP4

EPOCH          = 2026-03-20T08:59:22.676064
MEAN_MOTION    = 15.17597604
ECCENTRICITY   = .0032935
INCLINATION    = 43.0149
RA_OF_ASC_NODE = 317.2648
ARG_OF_PERICENTER = 300.9726
MEAN_ANOMALY   = 58.7888

EPHEMERIS_TYPE = 0
CLASSIFICATION_TYPE = U
NORAD_CAT_ID   = 42758
ELEMENT_SET_NO = 999
REV_AT_EPOCH   = 48416
BSTAR          = .21458E-3
MEAN_MOTION_DOT = .421E-4
MEAN_MOTION_DDOT = 0

CCSDS_OMM_VERS = 2.0
CREATION_DATE  = 
ORIGINATOR     = 

OBJECT_NAME    = SAOCOM 1A
OBJECT_ID      = 2018-076A
CENTER_NAME    = EARTH
REF_FRAME      = TEME
TIME_SYSTEM    = UTC
MEAN_ELEMENT_THEORY = SGP/SGP4

EPOCH          = 2026-03-20T11:52:21.717120
MEAN_MOTION    = 14.82152570
ECCENTRICITY   = .00015
INCLINATION    = 97.8892
RA_OF_ASC_NODE = 267.5147
ARG_OF_PERICENTER = 87.7976
MEAN_ANOMALY   = 272.3409

EPHEMERIS_TYPE = 0
CLASSIFICATION_TYPE = U
NORAD_CAT_ID   = 43641
ELEMENT_SET_NO = 999
REV_AT_EPOCH   = 40296
BSTAR          = .6691E-4
MEAN_MOTION_DOT = .48E-5
MEAN_MOTION_DDOT = 0

CCSDS_OMM_VERS = 2.0
CREATION_DATE  = 
ORIGINATOR     = 

OBJECT_NAME    = H-2A R/B
OBJECT_ID      = 2018-084L
CENTER_NAME    = EARTH
REF_FRAME      = TEME
TIME_SYSTEM    = UTC
MEAN_ELEMENT_THEORY = SGP/SGP4

EPOCH          = 2026-03-20T04:23:47.959008
MEAN_MOTION    = 15.41759166
ECCENTRICITY   = .00245562
INCLINATION    = 98.8714
RA_OF_ASC_NODE = 298.8177
ARG_OF_PERICENTER = 349.1904
MEAN_ANOMALY   = 10.8807

EPHEMERIS_TYPE = 0
CLASSIFICATION_TYPE = U
NORAD_CAT_ID   = 43682
ELEMENT_SET_NO = 999
REV_AT_EPOCH   = 40739
BSTAR          = .29373396E-3
MEAN_MOTION_DOT = .12444E-3
MEAN_MOTION_DDOT = 0

CCSDS_OMM_VERS = 2.0
CREATION_DATE  = 
ORIGINATOR     = 

OBJECT_NAME    = SAOCOM 1B
OBJECT_ID      = 2020-059A
CENTER_NAME    = EARTH
REF_FRAME      = TEME
TIME_SYSTEM    = UTC
MEAN_ELEMENT_THEORY = SGP/SGP4

EPOCH          = 2026-03-20T12:37:18.656832
MEAN_MOTION    = 14.82145014
ECCENTRICITY   = .0001434
INCLINATION    = 97.8890
RA_OF_ASC_NODE = 266.6432
ARG_OF_PERICENTER = 89.9591
MEAN_ANOMALY   = 270.1786

EPHEMERIS_TYPE = 0
CLASSIFICATION_TYPE = U
NORAD_CAT_ID   = 46265
ELEMENT_SET_NO = 999
REV_AT_EPOCH   = 30035
BSTAR          = -.65929E-5
MEAN_MOTION_DOT = -.105E-5
MEAN_MOTION_DDOT = 0

CCSDS_OMM_VERS = 2.0
CREATION_DATE  = 
ORIGINATOR     = 

OBJECT_NAME    = CSS (TIANHE)
OBJECT_ID      = 2021-035A
CENTER_NAME    = EARTH
REF_FRAME      = TEME
TIME_SYSTEM    = UTC
MEAN_ELEMENT_THEORY = SGP/SGP4

EPOCH          = 2026-03-20T09:36:17.624736
MEAN_MOTION    = 15.61026164
ECCENTRICITY   = .0005872
INCLINATION    = 41.4699
RA_OF_ASC_NODE = 142.9629
ARG_OF_PERICENTER = 346.1089
MEAN_ANOMALY   = 13.9588

EPHEMERIS_TYPE = 0
CLASSIFICATION_TYPE = U
NORAD_CAT_ID   = 48274
ELEMENT_SET_NO = 999
REV_AT_EPOCH   = 27928
BSTAR          = .20839E-3
MEAN_MOTION_DOT = .1774E-3
MEAN_MOTION_DDOT = 0

CCSDS_OMM_VERS = 2.0
CREATION_DATE  = 
ORIGINATOR     = 

OBJECT_NAME    = COSMOS 2550
OBJECT_ID      = 2021-056A
CENTER_NAME    = EARTH
REF_FRAME      = TEME
TIME_SYSTEM    = UTC
MEAN_ELEMENT_THEORY = SGP/SGP4

EPOCH          = 2026-03-20T12:53:52.095264
MEAN_MOTION    = 15.33831834
ECCENTRICITY   = .0008198
INCLINATION    = 67.1449
RA_OF_ASC_NODE = 8.0687
ARG_OF_PERICENTER = 268.9621
MEAN_ANOMALY   = 91.0595

EPHEMERIS_TYPE = 0
CLASSIFICATION_TYPE = U
NORAD_CAT_ID   = 48865
ELEMENT_SET_NO = 999
REV_AT_EPOCH   = 26512
BSTAR          = .42624E-7
MEAN_MOTION_DOT = -.19E-5
MEAN_MOTION_DDOT = 0

CCSDS_OMM_VERS = 2.0
CREATION_DATE  = 
ORIGINATOR     = 

OBJECT_NAME    = CZ-2C R/B
OBJECT_ID      = 2022-058K
CENTER_NAME    = EARTH
REF_FRAME      = TEME
TIME_SYSTEM    = UTC
MEAN_ELEMENT_THEORY = SGP/SGP4

EPOCH          = 2026-03-20T12:05:01.516992
MEAN_MOTION    = 15.54961711
ECCENTRICITY   = .0041869
INCLINATION    = 50.1873
RA_OF_ASC_NODE = 262.6289
ARG_OF_PERICENTER = 246.9596
MEAN_ANOMALY   = 112.6957

EPHEMERIS_TYPE = 0
CLASSIFICATION_TYPE = U
NORAD_CAT_ID   = 52794
ELEMENT_SET_NO = 999
REV_AT_EPOCH   = 21181
BSTAR          = .48558E-3
MEAN_MOTION_DOT = .34137E-3
MEAN_MOTION_DDOT = 0

CCSDS_OMM_VERS = 2.0
CREATION_DATE  = 
ORIGINATOR     = 

OBJECT_NAME    = CZ-2C R/B
OBJECT_ID      = 2022-132E
CENTER_NAME    = EARTH
REF_FRAME      = TEME
TIME_SYSTEM    = UTC
MEAN_ELEMENT_THEORY = SGP/SGP4

EPOCH          = 2026-03-20T10:51:05.567328
MEAN_MOTION    = 15.62785581
ECCENTRICITY   = .0019426
INCLINATION    = 97.2959
RA_OF_ASC_NODE = 83.1035
ARG_OF_PERICENTER = 57.1661
MEAN_ANOMALY   = 303.1464

EPHEMERIS_TYPE = 0
CLASSIFICATION_TYPE = U
NORAD_CAT_ID   = 54039
ELEMENT_SET_NO = 999
REV_AT_EPOCH   = 19205
BSTAR          = .33517E-3
MEAN_MOTION_DOT = .30361E-3
MEAN_MOTION_DDOT = 0

CCSDS_OMM_VERS = 2.0
CREATION_DATE  = 
ORIGINATOR     = 

OBJECT_NAME    = GSLV R/B
OBJECT_ID      = 2022-138AN
CENTER_NAME    = EARTH
REF_FRAME      = TEME
TIME_SYSTEM    = UTC
MEAN_ELEMENT_THEORY = SGP/SGP4

EPOCH          = 2026-03-20T11:37:23.150208
MEAN_MOTION    = 14.96840331
ECCENTRICITY   = .0023942
INCLINATION    = 87.3870
RA_OF_ASC_NODE = 162.7491
ARG_OF_PERICENTER = 110.7422
MEAN_ANOMALY   = 249.6378

EPHEMERIS_TYPE = 0
CLASSIFICATION_TYPE = U
NORAD_CAT_ID   = 54149
ELEMENT_SET_NO = 999
REV_AT_EPOCH   = 18554
BSTAR          = .18718E-3
MEAN_MOTION_DOT = .2185E-4
MEAN_MOTION_DDOT = 0

